{
  "type": "FeatureCollection",
  "features": [
    {
      "type": "Feature",
      "properties": {
        "norad_id": 41890,
        "name": "CYGFM07",
        "group": "weather",
        "lat": 9.932483695235977,
        "lon": -19.27596568427208,
        "alt_km": 413.2079846510878,
        "timestamp": "2025-12-21T03:56:50.501314+00:00",
        "meta_object_name": "CYGFM07",
        "meta_object_id": "2016-078G",
        "meta_epoch": "2025-12-20T06:14:08.524032",
        "meta_mean_motion": 15.50300971,
        "meta_eccentricity": 0.0010083,
        "meta_inclination": 34.9485,
        "meta_ra_of_asc_node": 332.1364,
        "meta_arg_of_pericenter": 279.4388,
        "meta_mean_anomaly": 80.5194,
        "meta_ephemeris_type": 0,
        "meta_classification_type": "U",
        "meta_norad_cat_id": 41890,
        "meta_element_set_no": 999,
        "meta_rev_at_epoch": 50112,
        "meta_bstar": 0.00029061,
        "meta_mean_motion_dot": 0.00017004,
        "meta_mean_motion_ddot": 0,
        "tle_line1": "1 41890U 16078G   25354.25982088  .00017004  00000+0  29061-3 0  9997",
        "tle_line2": "2 41890  34.9485 332.1364 0010083 279.4388  80.5194 15.50300971501129"
      },
      "geometry": {
        "type": "Point",
        "coordinates": [
          -19.27596568427208,
          9.932483695235977
        ]
      }
    },
    {
      "type": "Feature",
      "properties": {
        "norad_id": 41891,
        "name": "CYGFM03",
        "group": "weather",
        "lat": -16.14935875817166,
        "lon": 172.62756239688525,
        "alt_km": 414.1824050204377,
        "timestamp": "2025-12-21T03:56:50.501324+00:00",
        "meta_object_name": "CYGFM03",
        "meta_object_id": "2016-078H",
        "meta_epoch": "2025-12-20T05:24:41.758848",
        "meta_mean_motion": 15.50196559,
        "meta_eccentricity": 0.00096734,
        "meta_inclination": 34.9438,
        "meta_ra_of_asc_node": 334.2852,
        "meta_arg_of_pericenter": 266.9211,
        "meta_mean_anomaly": 93.0404,
        "meta_ephemeris_type": 0,
        "meta_classification_type": "U",
        "meta_norad_cat_id": 41891,
        "meta_element_set_no": 999,
        "meta_rev_at_epoch": 50109,
        "meta_bstar": 0.00029188534,
        "meta_mean_motion_dot": 0.00017012,
        "meta_mean_motion_ddot": 0,
        "tle_line1": "1 41891U 16078H   25354.22548332  .00017012  00000+0  29189-3 0  9995",
        "tle_line2": "2 41891  34.9438 334.2852 0009673 266.9211  93.0404 15.50196559501096"
      },
      "geometry": {
        "type": "Point",
        "coordinates": [
          172.62756239688525,
          -16.14935875817166
        ]
      }
    },
    {
      "type": "Feature",
      "properties": {
        "norad_id": 43010,
        "name": "FENGYUN 3D",
        "group": "weather",
        "lat": -21.070548237667396,
        "lon": 138.10401120142978,
        "alt_km": 830.9053904059701,
        "timestamp": "2025-12-21T03:56:50.501333+00:00",
        "meta_object_name": "FENGYUN 3D",
        "meta_object_id": "2017-072A",
        "meta_epoch": "2025-12-20T21:55:41.240064",
        "meta_mean_motion": 14.19685113,
        "meta_eccentricity": 0.0001381,
        "meta_inclination": 98.9897,
        "meta_ra_of_asc_node": 321.3461,
        "meta_arg_of_pericenter": 157.7429,
        "meta_mean_anomaly": 202.3806,
        "meta_ephemeris_type": 0,
        "meta_classification_type": "U",
        "meta_norad_cat_id": 43010,
        "meta_element_set_no": 999,
        "meta_rev_at_epoch": 41969,
        "meta_bstar": -6.9107e-05,
        "meta_mean_motion_dot": -1.92e-06,
        "meta_mean_motion_ddot": 0,
        "tle_line1": "1 43010U 17072A   25354.91367176 -.00000192  00000+0 -69107-4 0  9994",
        "tle_line2": "2 43010  98.9897 321.3461 0001381 157.7429 202.3806 14.19685113419697"
      },
      "geometry": {
        "type": "Point",
        "coordinates": [
          138.10401120142978,
          -21.070548237667396
        ]
      }
    },
    {
      "type": "Feature",
      "properties": {
        "norad_id": 43013,
        "name": "NOAA 20 (JPSS-1)",
        "group": "weather",
        "lat": -11.410469405763095,
        "lon": -66.8470516404565,
        "alt_km": 831.1181732973091,
        "timestamp": "2025-12-21T03:56:50.501343+00:00",
        "meta_object_name": "NOAA 20 (JPSS-1)",
        "meta_object_id": "2017-073A",
        "meta_epoch": "2025-12-20T19:32:36.047904",
        "meta_mean_motion": 14.19527677,
        "meta_eccentricity": 0.0002124,
        "meta_inclination": 98.761,
        "meta_ra_of_asc_node": 291.0231,
        "meta_arg_of_pericenter": 75.6479,
        "meta_mean_anomaly": 284.4933,
        "meta_ephemeris_type": 0,
        "meta_classification_type": "U",
        "meta_norad_cat_id": 43013,
        "meta_element_set_no": 999,
        "meta_rev_at_epoch": 41916,
        "meta_bstar": 4.2786e-05,
        "meta_mean_motion_dot": 4.6e-07,
        "meta_mean_motion_ddot": 0,
        "tle_line1": "1 43013U 17073A   25354.81430611  .00000046  00000+0  42786-4 0  9992",
        "tle_line2": "2 43013  98.7610 291.0231 0002124  75.6479 284.4933 14.19527677419162"
      },
      "geometry": {
        "type": "Point",
        "coordinates": [
          -66.8470516404565,
          -11.410469405763095
        ]
      }
    },
    {
      "type": "Feature",
      "properties": {
        "norad_id": 43226,
        "name": "GOES 17",
        "group": "weather",
        "lat": -0.2111150049254721,
        "lon": 59.70654268934149,
        "alt_km": 35796.36010361861,
        "timestamp": "2025-12-21T03:56:50.501353+00:00",
        "meta_object_name": "GOES 17",
        "meta_object_id": "2018-022A",
        "meta_epoch": "2025-12-20T14:31:01.216416",
        "meta_mean_motion": 1.00270659,
        "meta_eccentricity": 0.0003089,
        "meta_inclination": 0.4767,
        "meta_ra_of_asc_node": 89.149,
        "meta_arg_of_pericenter": 191.489,
        "meta_mean_anomaly": 297.048,
        "meta_ephemeris_type": 0,
        "meta_classification_type": "U",
        "meta_norad_cat_id": 43226,
        "meta_element_set_no": 999,
        "meta_rev_at_epoch": 2863,
        "meta_bstar": 0,
        "meta_mean_motion_dot": -1.59e-06,
        "meta_mean_motion_ddot": 0,
        "tle_line1": "1 43226U 18022A   25354.60487519 -.00000159  00000+0  00000+0 0  9993",
        "tle_line2": "2 43226   0.4767  89.1490 0003089 191.4890 297.0480  1.00270659 28635"
      },
      "geometry": {
        "type": "Point",
        "coordinates": [
          59.70654268934149,
          -0.2111150049254721
        ]
      }
    },
    {
      "type": "Feature",
      "properties": {
        "norad_id": 43491,
        "name": "FENGYUN 2H",
        "group": "weather",
        "lat": 1.3705173622159397,
        "lon": -131.4384212103681,
        "alt_km": 35776.556839436416,
        "timestamp": "2025-12-21T03:56:50.501373+00:00",
        "meta_object_name": "FENGYUN 2H",
        "meta_object_id": "2018-050A",
        "meta_epoch": "2025-12-20T20:27:18.010656",
        "meta_mean_motion": 1.00271185,
        "meta_eccentricity": 0.0002377,
        "meta_inclination": 2.5708,
        "meta_ra_of_asc_node": 81.2447,
        "meta_arg_of_pericenter": 165.818,
        "meta_mean_anomaly": 228.7934,
        "meta_ephemeris_type": 0,
        "meta_classification_type": "U",
        "meta_norad_cat_id": 43491,
        "meta_element_set_no": 999,
        "meta_rev_at_epoch": 2765,
        "meta_bstar": 0,
        "meta_mean_motion_dot": -1.08e-06,
        "meta_mean_motion_ddot": 0,
        "tle_line1": "1 43491U 18050A   25354.85229179 -.00000108  00000+0  00000+0 0  9995",
        "tle_line2": "2 43491   2.5708  81.2447 0002377 165.8180 228.7934  1.00271185 27659"
      },
      "geometry": {
        "type": "Point",
        "coordinates": [
          -131.4384212103681,
          1.3705173622159397
        ]
      }
    },
    {
      "type": "Feature",
      "properties": {
        "norad_id": 43689,
        "name": "METOP-C",
        "group": "weather",
        "lat": -8.912930066141161,
        "lon": -128.57017409953113,
        "alt_km": 824.9278879263229,
        "timestamp": "2025-12-21T03:56:50.501383+00:00",
        "meta_object_name": "METOP-C",
        "meta_object_id": "2018-087A",
        "meta_epoch": "2025-12-20T18:36:53.606880",
        "meta_mean_motion": 14.21487204,
        "meta_eccentricity": 8.61e-05,
        "meta_inclination": 98.6918,
        "meta_ra_of_asc_node": 52.4217,
        "meta_arg_of_pericenter": 25.4014,
        "meta_mean_anomaly": 334.7205,
        "meta_ephemeris_type": 0,
        "meta_classification_type": "U",
        "meta_norad_cat_id": 43689,
        "meta_element_set_no": 999,
        "meta_rev_at_epoch": 36948,
        "meta_bstar": 6.2653e-05,
        "meta_mean_motion_dot": 9.3e-07,
        "meta_mean_motion_ddot": 0,
        "tle_line1": "1 43689U 18087A   25354.77562045  .00000093  00000+0  62653-4 0  9996",
        "tle_line2": "2 43689  98.6918  52.4217 0000861  25.4014 334.7205 14.21487204369482"
      },
      "geometry": {
        "type": "Point",
        "coordinates": [
          -128.57017409953113,
          -8.912930066141161
        ]
      }
    }
  ]
}